start=new Date('2022-09-02T00:00:00.000Z').valueOf();
sats=[{"RCS_SIZE":"LARGE","ECCENTRICITY":"0.00025830","BSTAR":"0.00019223000000","CLASSIFICATION_TYPE":"U","ELEMENT_SET_NO":"999","OBJECT_ID":"2022-076AF","MEAN_MOTION_DOT":"0.00026435","FILE":"3554009","MEAN_ELEMENT_THEORY":"SGP4","PERIAPSIS":"348.046","SITE":"AFETR","REV_AT_EPOCH":"130","TLE_LINE1":"1 53015U 22076AF  22244.91667824  .00026435  00000-0  19223-3 0  9998","ARG_OF_PERICENTER":"30.7808","DECAY_DATE":null,"OBJECT_NAME":"STARLINK-4262","MEAN_MOTION":"15.73191790","MEAN_ANOMALY":"281.5962","SEMIMAJOR_AXIS":"6727.919","NORAD_CAT_ID":"53015","INCLINATION":"53.2152","EPOCH":"2022-09-01T22:00:00.999936","APOAPSIS":"351.521","EPHEMERIS_TYPE":"0","CENTER_NAME":"EARTH","PERIOD":"91.534","GP_ID":"211506054","TIME_SYSTEM":"UTC","LAUNCH_DATE":"2022-07-07","OBJECT_TYPE":"PAYLOAD","TLE_LINE2":"2 53015  53.2152 100.6187 0002583  30.7808 281.5962 15.73191790  1301","MEAN_MOTION_DDOT":"0.0000000000000","COUNTRY_CODE":"US","RA_OF_ASC_NODE":"100.6187","REF_FRAME":"TEME"},{"NORAD_CAT_ID":"53016","SEMIMAJOR_AXIS":"6727.925","MEAN_ANOMALY":"276.5932","MEAN_MOTION":"15.73189697","PERIOD":"91.534","CENTER_NAME":"EARTH","EPHEMERIS_TYPE":"0","APOAPSIS":"351.222","INCLINATION":"53.2165","EPOCH":"2022-09-01T22:00:00.999936","OBJECT_TYPE":"PAYLOAD","LAUNCH_DATE":"2022-07-07","TIME_SYSTEM":"UTC","GP_ID":"211506754","RA_OF_ASC_NODE":"100.6226","REF_FRAME":"TEME","COUNTRY_CODE":"US","MEAN_MOTION_DDOT":"0.0000000000000","TLE_LINE2":"2 53016  53.2165 100.6226 0002129  33.4314 276.5932 15.73189697  1302","CLASSIFICATION_TYPE":"U","ECCENTRICITY":"0.00021290","BSTAR":"0.00022558000000","RCS_SIZE":"LARGE","ELEMENT_SET_NO":"999","PERIAPSIS":"348.357","FILE":"3554009","MEAN_ELEMENT_THEORY":"SGP4","OBJECT_ID":"2022-076AG","MEAN_MOTION_DOT":"0.00031143","OBJECT_NAME":"STARLINK-4283","DECAY_DATE":null,"TLE_LINE1":"1 53016U 22076AG  22244.91667824  .00031143  00000-0  22558-3 0  9996","ARG_OF_PERICENTER":"33.4314","REV_AT_EPOCH":"130","SITE":"AFETR"},{"ELEMENT_SET_NO":"999","RCS_SIZE":"LARGE","BSTAR":"-0.00046211000000","ECCENTRICITY":"0.00021690","CLASSIFICATION_TYPE":"U","REV_AT_EPOCH":"130","SITE":"AFETR","TLE_LINE1":"1 53017U 22076AH  22244.91667824 -.00065142  00000-0 -46211-3 0  9997","ARG_OF_PERICENTER":"33.9164","DECAY_DATE":null,"OBJECT_NAME":"STARLINK-4281","MEAN_MOTION_DOT":"-0.00065142","OBJECT_ID":"2022-076AH","FILE":"3554009","MEAN_ELEMENT_THEORY":"SGP4","PERIAPSIS":"348.137","INCLINATION":"53.2148","EPOCH":"2022-09-01T22:00:00.999936","APOAPSIS":"351.055","EPHEMERIS_TYPE":"0","CENTER_NAME":"EARTH","PERIOD":"91.530","MEAN_MOTION":"15.73257665","MEAN_ANOMALY":"279.0399","SEMIMAJOR_AXIS":"6727.731","NORAD_CAT_ID":"53017","TLE_LINE2":"2 53017  53.2148 100.6175 0002169  33.9164 279.0399 15.73257665  1305","MEAN_MOTION_DDOT":"0.0000000000000","COUNTRY_CODE":"US","RA_OF_ASC_NODE":"100.6175","REF_FRAME":"TEME","GP_ID":"211506325","TIME_SYSTEM":"UTC","LAUNCH_DATE":"2022-07-07","OBJECT_TYPE":"PAYLOAD"},{"MEAN_MOTION_DOT":"0.00028567","OBJECT_ID":"2022-076AJ","FILE":"3554009","MEAN_ELEMENT_THEORY":"SGP4","PERIAPSIS":"348.532","OBJECT_NAME":"STARLINK-4279","REV_AT_EPOCH":"130","SITE":"AFETR","TLE_LINE1":"1 53018U 22076AJ  22244.91667824  .00028567  00000-0  20719-3 0  9991","ARG_OF_PERICENTER":"34.6200","DECAY_DATE":null,"BSTAR":"0.00020719000000","ECCENTRICITY":"0.00017910","CLASSIFICATION_TYPE":"U","RCS_SIZE":"LARGE","ELEMENT_SET_NO":"999","OBJECT_TYPE":"PAYLOAD","GP_ID":"211506611","TIME_SYSTEM":"UTC","LAUNCH_DATE":"2022-07-07","COUNTRY_CODE":"US","RA_OF_ASC_NODE":"100.6212","REF_FRAME":"TEME","TLE_LINE2":"2 53018  53.2151 100.6212 0001791  34.6200 275.9679 15.73208030  1309","MEAN_MOTION_DDOT":"0.0000000000000","SEMIMAJOR_AXIS":"6727.872","NORAD_CAT_ID":"53018","MEAN_MOTION":"15.73208030","MEAN_ANOMALY":"275.9679","EPHEMERIS_TYPE":"0","CENTER_NAME":"EARTH","PERIOD":"91.533","INCLINATION":"53.2151","EPOCH":"2022-09-01T22:00:00.999936","APOAPSIS":"350.942"},{"RA_OF_ASC_NODE":"100.6151","REF_FRAME":"TEME","COUNTRY_CODE":"US","TLE_LINE2":"2 53019  53.2149 100.6151 0002585  22.5109 291.6855 15.73189098  1308","MEAN_MOTION_DDOT":"0.0000000000000","OBJECT_TYPE":"PAYLOAD","GP_ID":"211506468","LAUNCH_DATE":"2022-07-07","TIME_SYSTEM":"UTC","CENTER_NAME":"EARTH","EPHEMERIS_TYPE":"0","PERIOD":"91.534","INCLINATION":"53.2149","EPOCH":"2022-09-01T22:00:00.999936","APOAPSIS":"351.530","SEMIMAJOR_AXIS":"6727.926","NORAD_CAT_ID":"53019","MEAN_ANOMALY":"291.6855","MEAN_MOTION":"15.73189098","OBJECT_NAME":"STARLINK-4282","ARG_OF_PERICENTER":"22.5109","TLE_LINE1":"1 53019U 22076AK  22244.91667824  .00027511  00000-0  19987-3 0  9995","REV_AT_EPOCH":"130","SITE":"AFETR","DECAY_DATE":null,"MEAN_MOTION_DOT":"0.00027511","OBJECT_ID":"2022-076AK","PERIAPSIS":"348.052","FILE":"3554009","MEAN_ELEMENT_THEORY":"SGP4","ELEMENT_SET_NO":"999","BSTAR":"0.00019987000000","ECCENTRICITY":"0.00025850","CLASSIFICATION_TYPE":"U","RCS_SIZE":"LARGE"},{"EPHEMERIS_TYPE":"0","CENTER_NAME":"EARTH","PERIOD":"91.534","INCLINATION":"53.2149","EPOCH":"2022-09-01T22:00:00.999936","APOAPSIS":"351.071","SEMIMAJOR_AXIS":"6727.931","NORAD_CAT_ID":"53020","MEAN_MOTION":"15.73187294","MEAN_ANOMALY":"275.4163","COUNTRY_CODE":"US","RA_OF_ASC_NODE":"100.6195","REF_FRAME":"TEME","TLE_LINE2":"2 53020  53.2149 100.6195 0001895  36.3629 275.4163 15.73187294  1309","MEAN_MOTION_DDOT":"0.0000000000000","OBJECT_TYPE":"PAYLOAD","GP_ID":"211506911","TIME_SYSTEM":"UTC","LAUNCH_DATE":"2022-07-07","ELEMENT_SET_NO":"999","ECCENTRICITY":"0.00018950","BSTAR":"0.00018275000000","CLASSIFICATION_TYPE":"U","RCS_SIZE":"LARGE","OBJECT_NAME":"STARLINK-4287","SITE":"AFETR","REV_AT_EPOCH":"130","ARG_OF_PERICENTER":"36.3629","TLE_LINE1":"1 53020U 22076AL  22244.91667824  .00025091  00000-0  18275-3 0  9997","DECAY_DATE":null,"OBJECT_ID":"2022-076AL","MEAN_MOTION_DOT":"0.00025091","MEAN_ELEMENT_THEORY":"SGP4","FILE":"3554009","PERIAPSIS":"348.521"},{"MEAN_MOTION_DDOT":"0.0000000000000","TLE_LINE2":"2 53021  53.2150 100.6112 0002604  21.6399 293.6526 15.73227871  1302","RA_OF_ASC_NODE":"100.6112","REF_FRAME":"TEME","COUNTRY_CODE":"US","LAUNCH_DATE":"2022-07-07","TIME_SYSTEM":"UTC","GP_ID":"211505912","OBJECT_TYPE":"PAYLOAD","APOAPSIS":"351.433","INCLINATION":"53.2150","EPOCH":"2022-09-01T22:00:00.999936","PERIOD":"91.532","CENTER_NAME":"EARTH","EPHEMERIS_TYPE":"0","MEAN_ANOMALY":"293.6526","MEAN_MOTION":"15.73227871","NORAD_CAT_ID":"53021","SEMIMAJOR_AXIS":"6727.816","DECAY_DATE":null,"TLE_LINE1":"1 53021U 22076AM  22244.91667824  .00031241  00000-0  22590-3 0  9997","ARG_OF_PERICENTER":"21.6399","REV_AT_EPOCH":"130","SITE":"AFETR","OBJECT_NAME":"STARLINK-4203","PERIAPSIS":"347.929","MEAN_ELEMENT_THEORY":"SGP4","FILE":"3554009","OBJECT_ID":"2022-076AM","MEAN_MOTION_DOT":"0.00031241","ELEMENT_SET_NO":"999","RCS_SIZE":"LARGE","CLASSIFICATION_TYPE":"U","BSTAR":"0.00022590000000","ECCENTRICITY":"0.00026040"},{"OBJECT_ID":"2022-076AN","MEAN_MOTION_DOT":"0.00030803","PERIAPSIS":"348.228","MEAN_ELEMENT_THEORY":"SGP4","FILE":"3554009","OBJECT_NAME":"STARLINK-4216","ARG_OF_PERICENTER":"26.8041","TLE_LINE1":"1 53022U 22076AN  22244.91667824  .00030803  00000-0  22311-3 0  9992","REV_AT_EPOCH":"130","SITE":"AFETR","DECAY_DATE":null,"BSTAR":"0.00022311000000","ECCENTRICITY":"0.00022940","CLASSIFICATION_TYPE":"U","RCS_SIZE":"LARGE","ELEMENT_SET_NO":"999","OBJECT_TYPE":"PAYLOAD","GP_ID":"211506197","LAUNCH_DATE":"2022-07-07","TIME_SYSTEM":"UTC","RA_OF_ASC_NODE":"100.6160","REF_FRAME":"TEME","COUNTRY_CODE":"US","TLE_LINE2":"2 53022  53.2149 100.6160 0002294  26.8041 286.7727 15.73195896  1307","MEAN_MOTION_DDOT":"0.0000000000000","SEMIMAJOR_AXIS":"6727.907","NORAD_CAT_ID":"53022","MEAN_ANOMALY":"286.7727","MEAN_MOTION":"15.73195896","CENTER_NAME":"EARTH","EPHEMERIS_TYPE":"0","PERIOD":"91.533","EPOCH":"2022-09-01T22:00:00.999936","INCLINATION":"53.2149","APOAPSIS":"351.315"},{"PERIAPSIS":"348.304","FILE":"3554009","MEAN_ELEMENT_THEORY":"SGP4","MEAN_MOTION_DOT":"-0.00070467","OBJECT_ID":"2022-076AP","OBJECT_NAME":"STARLINK-4284","DECAY_DATE":null,"TLE_LINE1":"1 53023U 22076AP  22244.91667824 -.00070467  00000-0 -50122-3 0  9996","ARG_OF_PERICENTER":"23.9541","SITE":"AFETR","REV_AT_EPOCH":"130","CLASSIFICATION_TYPE":"U","ECCENTRICITY":"0.00020480","BSTAR":"-0.00050122000000","RCS_SIZE":"LARGE","ELEMENT_SET_NO":"999","OBJECT_TYPE":"PAYLOAD","LAUNCH_DATE":"2022-07-07","TIME_SYSTEM":"UTC","GP_ID":"211506055","RA_OF_ASC_NODE":"100.6089","REF_FRAME":"TEME","COUNTRY_CODE":"US","MEAN_MOTION_DDOT":"0.0000000000000","TLE_LINE2":"2 53023  53.2149 100.6089 0002048  23.9541 292.6609 15.73227583  1302","NORAD_CAT_ID":"53023","SEMIMAJOR_AXIS":"6727.817","MEAN_ANOMALY":"292.6609","MEAN_MOTION":"15.73227583","PERIOD":"91.532","CENTER_NAME":"EARTH","EPHEMERIS_TYPE":"0","APOAPSIS":"351.059","INCLINATION":"53.2149","EPOCH":"2022-09-01T22:00:00.999936"},{"COUNTRY_CODE":"US","RA_OF_ASC_NODE":"100.6109","REF_FRAME":"TEME","TLE_LINE2":"2 53024  53.2147 100.6109 0001859  36.0526 279.9111 15.73219172  1302","MEAN_MOTION_DDOT":"0.0000000000000","OBJECT_TYPE":"PAYLOAD","GP_ID":"211506755","TIME_SYSTEM":"UTC","LAUNCH_DATE":"2022-07-07","EPHEMERIS_TYPE":"0","CENTER_NAME":"EARTH","PERIOD":"91.532","INCLINATION":"53.2147","EPOCH":"2022-09-01T22:00:00.999936","APOAPSIS":"350.956","SEMIMAJOR_AXIS":"6727.841","NORAD_CAT_ID":"53024","MEAN_MOTION":"15.73219172","MEAN_ANOMALY":"279.9111","OBJECT_NAME":"STARLINK-4289","SITE":"AFETR","REV_AT_EPOCH":"130","TLE_LINE1":"1 53024U 22076AQ  22244.91667824 -.00032034  00000-0 -22449-3 0  9996","ARG_OF_PERICENTER":"36.0526","DECAY_DATE":null,"OBJECT_ID":"2022-076AQ","MEAN_MOTION_DOT":"-0.00032034","FILE":"3554009","MEAN_ELEMENT_THEORY":"SGP4","PERIAPSIS":"348.455","ELEMENT_SET_NO":"999","BSTAR":"-0.00022449000000","ECCENTRICITY":"0.00018590","CLASSIFICATION_TYPE":"U","RCS_SIZE":"LARGE"}];
